OBJECT_NAME,OBJECT_ID,EPOCH,MEAN_MOTION,ECCENTRICITY,INCLINATION,RA_OF_ASC_NODE,ARG_OF_PERICENTER,MEAN_ANOMALY,EPHEMERIS_TYPE,CLASSIFICATION_TYPE,NORAD_CAT_ID,ELEMENT_SET_NO,REV_AT_EPOCH,BSTAR,MEAN_MOTION_DOT,MEAN_MOTION_DDOT
FORESAIL-1 PRIME,2025-276DS,2026-06-03T21:13:29.893728,15.18574549,.0003556,97.4202,228.3996,131.6607,228.4932,0,U,66778,999,2838,.29269E-3,.5984E-4,0
